2025-313AL              
1 67282U 25313AL  26023.59750806  .00009424  00000+0  42459-3 0  9997
2 67282  97.4085 100.6346 0012071 141.6923 218.5173 15.21200886  3965
HORS 5                  
1 67283U 25313AM  26023.59578047  .00014627  00000+0  65292-3 0  9994
2 67283  97.4092 100.6397 0011886 141.5562 218.6523 15.21408774  3967
LOBACHEVSKY (RS83S)     
1 67284U 25313AN  26023.13754322  .00006240  00000+0  28317-3 0  9996
2 67284  97.4079 100.1783 0011923 143.0969 217.1090 15.21097684  3896
NASBSAT-2               
1 67285U 25313AP  26023.59467275  .00013265  00000+0  59176-3 0  9997
2 67285  97.4069 100.6327 0011524 142.9179 217.2855 15.21457106  3960
2025-313AQ              
1 67286U 25313AQ  26023.59412249  .00014665  00000+0  65371-3 0  9998
2 67286  97.4090 100.6493 0011194 138.1717 222.0376 15.21464049  3963
LUCA (RS90S)            
1 67287U 25313AR  26023.46127212  .00014674  00000+0  65156-3 0  9999
2 67287  97.4091 100.5220 0011090 140.2991 219.9059 15.21599089  3949
2025-313AS              
1 67288U 25313AS  26023.59461449  .00009080  00000+0  40712-3 0  9993
2 67288  97.4079 100.6441 0012973 132.9357 227.2970 15.21369619  3967
NASBSAT-1               
1 67289U 25313AT  26023.45916805  .00020064  00000+0  88272-3 0  9998
2 67289  97.4092 100.5253 0010876 140.7388 219.4639 15.21847073  3942
SAKHACUBE-CHOLBON (RS1*)
1 67290U 25313AU  26023.59137703  .00016721  00000+0  73943-3 0  9991
2 67290  97.4089 100.6534 0010785 139.3864 220.8179 15.21711210  3965
QMR-KWT-2 (RS95S)       
1 67291U 25313AV  26023.59040006  .00022110  00000+0  97192-3 0  9992
2 67291  97.4090 100.6548 0010569 139.4743 220.7282 15.21858651  3965
SITRO-AIS-64            
1 67292U 25313AW  26023.58976883  .00016040  00000+0  70755-3 0  9994
2 67292  97.4092 100.6573 0010464 139.1250 221.0773 15.21809466  3969
SCORPION (RS89S)        
1 67293U 25313AX  26023.59251491  .00006527  00000+0  29301-3 0  9997
2 67293  97.4090 100.6498 0012447 130.8735 229.3582 15.21443688  3962
