CCSDS_OMM_VERS = 2.0
CREATION_DATE  = 
ORIGINATOR     = 

OBJECT_NAME    = 2025-313AL
OBJECT_ID      = 2025-313AL
CENTER_NAME    = EARTH
REF_FRAME      = TEME
TIME_SYSTEM    = UTC
MEAN_ELEMENT_THEORY = SGP/SGP4

EPOCH          = 2026-01-23T14:20:24.696384
MEAN_MOTION    = 15.21200886
ECCENTRICITY   = .0012071
INCLINATION    = 97.4085
RA_OF_ASC_NODE = 100.6346
ARG_OF_PERICENTER = 141.6923
MEAN_ANOMALY   = 218.5173

EPHEMERIS_TYPE = 0
CLASSIFICATION_TYPE = U
NORAD_CAT_ID   = 67282
ELEMENT_SET_NO = 999
REV_AT_EPOCH   = 396
BSTAR          = .42458502E-3
MEAN_MOTION_DOT = .9424E-4
MEAN_MOTION_DDOT = 0

CCSDS_OMM_VERS = 2.0
CREATION_DATE  = 
ORIGINATOR     = 

OBJECT_NAME    = HORS 5
OBJECT_ID      = 2025-313AM
CENTER_NAME    = EARTH
REF_FRAME      = TEME
TIME_SYSTEM    = UTC
MEAN_ELEMENT_THEORY = SGP/SGP4

EPOCH          = 2026-01-23T14:17:55.432608
MEAN_MOTION    = 15.21408774
ECCENTRICITY   = .0011886
INCLINATION    = 97.4092
RA_OF_ASC_NODE = 100.6397
ARG_OF_PERICENTER = 141.5562
MEAN_ANOMALY   = 218.6523

EPHEMERIS_TYPE = 0
CLASSIFICATION_TYPE = U
NORAD_CAT_ID   = 67283
ELEMENT_SET_NO = 999
REV_AT_EPOCH   = 396
BSTAR          = .65291904E-3
MEAN_MOTION_DOT = .14627E-3
MEAN_MOTION_DDOT = 0

CCSDS_OMM_VERS = 2.0
CREATION_DATE  = 
ORIGINATOR     = 

OBJECT_NAME    = LOBACHEVSKY (RS83S)
OBJECT_ID      = 2025-313AN
CENTER_NAME    = EARTH
REF_FRAME      = TEME
TIME_SYSTEM    = UTC
MEAN_ELEMENT_THEORY = SGP/SGP4

EPOCH          = 2026-01-23T03:18:03.734208
MEAN_MOTION    = 15.21097684
ECCENTRICITY   = .00119231
INCLINATION    = 97.4079
RA_OF_ASC_NODE = 100.1783
ARG_OF_PERICENTER = 143.0969
MEAN_ANOMALY   = 217.1090

EPHEMERIS_TYPE = 0
CLASSIFICATION_TYPE = U
NORAD_CAT_ID   = 67284
ELEMENT_SET_NO = 999
REV_AT_EPOCH   = 389
BSTAR          = .28316686E-3
MEAN_MOTION_DOT = .624E-4
MEAN_MOTION_DDOT = 0

CCSDS_OMM_VERS = 2.0
CREATION_DATE  = 
ORIGINATOR     = 

OBJECT_NAME    = NASBSAT-2
OBJECT_ID      = 2025-313AP
CENTER_NAME    = EARTH
REF_FRAME      = TEME
TIME_SYSTEM    = UTC
MEAN_ELEMENT_THEORY = SGP/SGP4

EPOCH          = 2026-01-23T14:16:19.725600
MEAN_MOTION    = 15.21457106
ECCENTRICITY   = .00115248
INCLINATION    = 97.4069
RA_OF_ASC_NODE = 100.6327
ARG_OF_PERICENTER = 142.9179
MEAN_ANOMALY   = 217.2855

EPHEMERIS_TYPE = 0
CLASSIFICATION_TYPE = U
NORAD_CAT_ID   = 67285
ELEMENT_SET_NO = 999
REV_AT_EPOCH   = 396
BSTAR          = .59176014E-3
MEAN_MOTION_DOT = .13265E-3
MEAN_MOTION_DDOT = 0

CCSDS_OMM_VERS = 2.0
CREATION_DATE  = 
ORIGINATOR     = 

OBJECT_NAME    = 2025-313AQ
OBJECT_ID      = 2025-313AQ
CENTER_NAME    = EARTH
REF_FRAME      = TEME
TIME_SYSTEM    = UTC
MEAN_ELEMENT_THEORY = SGP/SGP4

EPOCH          = 2026-01-23T14:15:32.183136
MEAN_MOTION    = 15.21464049
ECCENTRICITY   = .00111943
INCLINATION    = 97.4090
RA_OF_ASC_NODE = 100.6493
ARG_OF_PERICENTER = 138.1717
MEAN_ANOMALY   = 222.0376

EPHEMERIS_TYPE = 0
CLASSIFICATION_TYPE = U
NORAD_CAT_ID   = 67286
ELEMENT_SET_NO = 999
REV_AT_EPOCH   = 396
BSTAR          = .65371445E-3
MEAN_MOTION_DOT = .14665E-3
MEAN_MOTION_DDOT = 0

CCSDS_OMM_VERS = 2.0
CREATION_DATE  = 
ORIGINATOR     = 

OBJECT_NAME    = LUCA (RS90S)
OBJECT_ID      = 2025-313AR
CENTER_NAME    = EARTH
REF_FRAME      = TEME
TIME_SYSTEM    = UTC
MEAN_ELEMENT_THEORY = SGP/SGP4

EPOCH          = 2026-01-23T11:04:13.911168
MEAN_MOTION    = 15.21599089
ECCENTRICITY   = .00110908
INCLINATION    = 97.4091
RA_OF_ASC_NODE = 100.5220
ARG_OF_PERICENTER = 140.2991
MEAN_ANOMALY   = 219.9059

EPHEMERIS_TYPE = 0
CLASSIFICATION_TYPE = U
NORAD_CAT_ID   = 67287
ELEMENT_SET_NO = 999
REV_AT_EPOCH   = 394
BSTAR          = .6515596E-3
MEAN_MOTION_DOT = .14674E-3
MEAN_MOTION_DDOT = 0

CCSDS_OMM_VERS = 2.0
CREATION_DATE  = 
ORIGINATOR     = 

OBJECT_NAME    = 2025-313AS
OBJECT_ID      = 2025-313AS
CENTER_NAME    = EARTH
REF_FRAME      = TEME
TIME_SYSTEM    = UTC
MEAN_ELEMENT_THEORY = SGP/SGP4

EPOCH          = 2026-01-23T14:16:14.691936
MEAN_MOTION    = 15.21369619
ECCENTRICITY   = .00129734
INCLINATION    = 97.4079
RA_OF_ASC_NODE = 100.6441
ARG_OF_PERICENTER = 132.9357
MEAN_ANOMALY   = 227.2970

EPHEMERIS_TYPE = 0
CLASSIFICATION_TYPE = U
NORAD_CAT_ID   = 67288
ELEMENT_SET_NO = 999
REV_AT_EPOCH   = 396
BSTAR          = .40712077E-3
MEAN_MOTION_DOT = .908E-4
MEAN_MOTION_DDOT = 0

CCSDS_OMM_VERS = 2.0
CREATION_DATE  = 
ORIGINATOR     = 

OBJECT_NAME    = NASBSAT-1
OBJECT_ID      = 2025-313AT
CENTER_NAME    = EARTH
REF_FRAME      = TEME
TIME_SYSTEM    = UTC
MEAN_ELEMENT_THEORY = SGP/SGP4

EPOCH          = 2026-01-23T11:01:12.119520
MEAN_MOTION    = 15.21847073
ECCENTRICITY   = .00108766
INCLINATION    = 97.4092
RA_OF_ASC_NODE = 100.5253
ARG_OF_PERICENTER = 140.7388
MEAN_ANOMALY   = 219.4639

EPHEMERIS_TYPE = 0
CLASSIFICATION_TYPE = U
NORAD_CAT_ID   = 67289
ELEMENT_SET_NO = 999
REV_AT_EPOCH   = 394
BSTAR          = .88272262E-3
MEAN_MOTION_DOT = .20064E-3
MEAN_MOTION_DDOT = 0

CCSDS_OMM_VERS = 2.0
CREATION_DATE  = 
ORIGINATOR     = 

OBJECT_NAME    = SAKHACUBE-CHOLBON (RS18S)
OBJECT_ID      = 2025-313AU
CENTER_NAME    = EARTH
REF_FRAME      = TEME
TIME_SYSTEM    = UTC
MEAN_ELEMENT_THEORY = SGP/SGP4

EPOCH          = 2026-01-23T14:11:34.975392
MEAN_MOTION    = 15.21711210
ECCENTRICITY   = .00107853
INCLINATION    = 97.4089
RA_OF_ASC_NODE = 100.6534
ARG_OF_PERICENTER = 139.3864
MEAN_ANOMALY   = 220.8179

EPHEMERIS_TYPE = 0
CLASSIFICATION_TYPE = U
NORAD_CAT_ID   = 67290
ELEMENT_SET_NO = 999
REV_AT_EPOCH   = 396
BSTAR          = .73942544E-3
MEAN_MOTION_DOT = .16721E-3
MEAN_MOTION_DDOT = 0

CCSDS_OMM_VERS = 2.0
CREATION_DATE  = 
ORIGINATOR     = 

OBJECT_NAME    = QMR-KWT-2 (RS95S)
OBJECT_ID      = 2025-313AV
CENTER_NAME    = EARTH
REF_FRAME      = TEME
TIME_SYSTEM    = UTC
MEAN_ELEMENT_THEORY = SGP/SGP4

EPOCH          = 2026-01-23T14:10:10.565184
MEAN_MOTION    = 15.21858651
ECCENTRICITY   = .00105695
INCLINATION    = 97.4090
RA_OF_ASC_NODE = 100.6548
ARG_OF_PERICENTER = 139.4743
MEAN_ANOMALY   = 220.7282

EPHEMERIS_TYPE = 0
CLASSIFICATION_TYPE = U
NORAD_CAT_ID   = 67291
ELEMENT_SET_NO = 999
REV_AT_EPOCH   = 396
BSTAR          = .9719223E-3
MEAN_MOTION_DOT = .2211E-3
MEAN_MOTION_DDOT = 0

CCSDS_OMM_VERS = 2.0
CREATION_DATE  = 
ORIGINATOR     = 

OBJECT_NAME    = SITRO-AIS-64
OBJECT_ID      = 2025-313AW
CENTER_NAME    = EARTH
REF_FRAME      = TEME
TIME_SYSTEM    = UTC
MEAN_ELEMENT_THEORY = SGP/SGP4

EPOCH          = 2026-01-23T14:09:16.026912
MEAN_MOTION    = 15.21809466
ECCENTRICITY   = .00104649
INCLINATION    = 97.4092
RA_OF_ASC_NODE = 100.6573
ARG_OF_PERICENTER = 139.1250
MEAN_ANOMALY   = 221.0773

EPHEMERIS_TYPE = 0
CLASSIFICATION_TYPE = U
NORAD_CAT_ID   = 67292
ELEMENT_SET_NO = 999
REV_AT_EPOCH   = 396
BSTAR          = .7075541E-3
MEAN_MOTION_DOT = .1604E-3
MEAN_MOTION_DDOT = 0

CCSDS_OMM_VERS = 2.0
CREATION_DATE  = 
ORIGINATOR     = 

OBJECT_NAME    = SCORPION (RS89S)
OBJECT_ID      = 2025-313AX
CENTER_NAME    = EARTH
REF_FRAME      = TEME
TIME_SYSTEM    = UTC
MEAN_ELEMENT_THEORY = SGP/SGP4

EPOCH          = 2026-01-23T14:13:13.288224
MEAN_MOTION    = 15.21443688
ECCENTRICITY   = .00124474
INCLINATION    = 97.4090
RA_OF_ASC_NODE = 100.6498
ARG_OF_PERICENTER = 130.8735
MEAN_ANOMALY   = 229.3582

EPHEMERIS_TYPE = 0
CLASSIFICATION_TYPE = U
NORAD_CAT_ID   = 67293
ELEMENT_SET_NO = 999
REV_AT_EPOCH   = 396
BSTAR          = .29301466E-3
MEAN_MOTION_DOT = .6527E-4
MEAN_MOTION_DDOT = 0

